{
  "original_analysis": {
    "covered_bins": 36,
    "total_bins": 36,
    "coverage_percent": 100.0,
    "distribution": {
      "9": 237,
      "7": 299,
      "11": 222,
      "5": 175,
      "6": 300,
      "34": 325,
      "8": 363,
      "10": 232,
      "13": 201,
      "12": 224,
      "22": 212,
      "24": 224,
      "25": 247,
      "20": 215,
      "21": 242,
      "23": 181,
      "4": 241,
      "18": 188,
      "16": 270,
      "17": 215,
      "19": 179,
      "15": 218,
      "29": 262,
      "27": 245,
      "31": 186,
      "26": 243,
      "28": 166,
      "3": 343,
      "1": 143,
      "33": 312,
      "35": 308,
      "32": 245,
      "30": 297,
      "14": 166,
      "0": 274,
      "2": 295
    },
    "total_satellites": 8695
  },
  "phase2_results": {
    "phase": "Phase 2 - Orbital Diversity Filtering",
    "input_count": 8695,
    "output_count": 500,
    "reduction_ratio": 0.05750431282346176,
    "selected_satellites": [
      {
        "OBJECT_NAME": "STARLINK-5577",
        "OBJECT_ID": "2023-028L",
        "EPOCH": "2025-07-31T22:51:59.351328",
        "MEAN_MOTION": 14.9832815,
        "ECCENTRICITY": 0.0002512,
        "INCLINATION": 70.0002,
        "RA_OF_ASC_NODE": 81.1058,
        "ARG_OF_PERICENTER": 264.8046,
        "MEAN_ANOMALY": 95.2826,
        "EPHEMERIS_TYPE": 0,
        "CLASSIFICATION_TYPE": "U",
        "NORAD_CAT_ID": 55751,
        "ELEMENT_SET_NO": 999,
        "REV_AT_EPOCH": 13297,
        "BSTAR": -2.2601e-05,
        "MEAN_MOTION_DOT": -3.63e-06,
        "MEAN_MOTION_DDOT": 0,
        "constellation": "starlink",
        "quality_scores": {
          "orbital_stability": 21.684714999999997,
          "coverage_uniformity": 20,
          "handover_frequency": 24.011755555555556,
          "signal_quality": 25,
          "total_score": 90.69647055555555
        }
      },
      {
        "OBJECT_NAME": "STARLINK-5072",
        "OBJECT_ID": "2023-028T",
        "EPOCH": "2025-07-31T20:27:46.206432",
        "MEAN_MOTION": 14.98326687,
        "ECCENTRICITY": 0.0002991,
        "INCLINATION": 69.9999,
        "RA_OF_ASC_NODE": 81.1565,
        "ARG_OF_PERICENTER": 269.7452,
        "MEAN_ANOMALY": 90.3364,
        "EPHEMERIS_TYPE": 0,
        "CLASSIFICATION_TYPE": "U",
        "NORAD_CAT_ID": 55758,
        "ELEMENT_SET_NO": 999,
        "REV_AT_EPOCH": 13296,
        "BSTAR": 2.4181e-05,
        "MEAN_MOTION_DOT": 1.96e-06,
        "MEAN_MOTION_DDOT": 0,
        "constellation": "starlink",
        "quality_scores": {
          "orbital_stability": 21.67757876666667,
          "coverage_uniformity": 20,
          "handover_frequency": 24.01738888888889,
          "signal_quality": 25,
          "total_score": 90.69496765555556
        }
      },
      {
        "OBJECT_NAME": "STARLINK-5612",
        "OBJECT_ID": "2023-028P",
        "EPOCH": "2025-07-31T20:33:46.872000",
        "MEAN_MOTION": 14.98312875,
        "ECCENTRICITY": 0.0003202,
        "INCLINATION": 70.0002,
        "RA_OF_ASC_NODE": 81.1713,
        "ARG_OF_PERICENTER": 268.9515,
        "MEAN_ANOMALY": 91.1277,
        "EPHEMERIS_TYPE": 0,
        "CLASSIFICATION_TYPE": "U",
        "NORAD_CAT_ID": 55754,
        "ELEMENT_SET_NO": 999,
        "REV_AT_EPOCH": 13296,
        "BSTAR": 9.1556e-05,
        "MEAN_MOTION_DOT": 9.99e-06,
        "MEAN_MOTION_DDOT": 0,
        "constellation": "starlink",
        "quality_scores": {
          "orbital_stability": 21.674874166666662,
          "coverage_uniformity": 20,
          "handover_frequency": 24.019033333333333,
          "signal_quality": 25,
          "total_score": 90.6939075
        }
      },
      {
        "OBJECT_NAME": "STARLINK-5592",
        "OBJECT_ID": "2023-028A",
        "EPOCH": "2025-07-31T22:57:59.949504",
        "MEAN_MOTION": 14.98328748,
        "ECCENTRICITY": 0.0002909,
        "INCLINATION": 70,
        "RA_OF_ASC_NODE": 81.1199,
        "ARG_OF_PERICENTER": 269.2104,
        "MEAN_ANOMALY": 90.8721,
        "EPHEMERIS_TYPE": 0,
        "CLASSIFICATION_TYPE": "U",
        "NORAD_CAT_ID": 55741,
        "ELEMENT_SET_NO": 999,
        "REV_AT_EPOCH": 13316,
        "BSTAR": -1.8974e-05,
        "MEAN_MOTION_DOT": -3.19e-06,
        "MEAN_MOTION_DDOT": 0,
        "constellation": "starlink",
        "quality_scores": {
          "orbital_stability": 21.67874006666667,
          "coverage_uniformity": 20,
          "handover_frequency": 24.01332222222222,
          "signal_quality": 25,
          "total_score": 90.69206228888889
        }
      },
      {
        "OBJECT_NAME": "STARLINK-5539",
        "OBJECT_ID": "2023-028G",
        "EPOCH": "2025-07-31T22:45:58.816224",
        "MEAN_MOTION": 14.98328105,
        "ECCENTRICITY": 0.0002891,
        "INCLINATION": 70.0003,
        "RA_OF_ASC_NODE": 81.0912,
        "ARG_OF_PERICENTER": 266.2822,
        "MEAN_ANOMALY": 93.8007,
        "EPHEMERIS_TYPE": 0,
        "CLASSIFICATION_TYPE": "U",
        "NORAD_CAT_ID": 55747,
        "ELEMENT_SET_NO": 999,
        "REV_AT_EPOCH": 13297,
        "BSTAR": -4.2846e-05,
        "MEAN_MOTION_DOT": -6.04e-06,
        "MEAN_MOTION_DDOT": 0,
        "constellation": "starlink",
        "quality_scores": {
          "orbital_stability": 21.6790315,
          "coverage_uniformity": 20,
          "handover_frequency": 24.010133333333336,
          "signal_quality": 25,
          "total_score": 90.68916483333334
        }
      },
      {
        "OBJECT_NAME": "STARLINK-5580",
        "OBJECT_ID": "2023-028H",
        "EPOCH": "2025-07-31T22:39:57.896640",
        "MEAN_MOTION": 14.98330469,
        "ECCENTRICITY": 0.0002946,
        "INCLINATION": 70.0001,
        "RA_OF_ASC_NODE": 81.0767,
        "ARG_OF_PERICENTER": 269.4387,
        "MEAN_ANOMALY": 90.6435,
        "EPHEMERIS_TYPE": 0,
        "CLASSIFICATION_TYPE": "U",
        "NORAD_CAT_ID": 55748,
        "ELEMENT_SET_NO": 999,
        "REV_AT_EPOCH": 13297,
        "BSTAR": 2.7658e-05,
        "MEAN_MOTION_DOT": 2.37e-06,
        "MEAN_MOTION_DDOT": 0,
        "constellation": "starlink",
        "quality_scores": {
          "orbital_stability": 21.678127699999997,
          "coverage_uniformity": 20,
          "handover_frequency": 24.008522222222222,
          "signal_quality": 25,
          "total_score": 90.68664992222222
        }
      }