STARLINK-5592           
1 55741U 23028A   25212.95694386 -.00000319  00000+0 -18974-4 0  9996
2 55741  70.0000  81.1199 0002909 269.2104  90.8721 14.98328748133169
STARLINK-5539           
1 55747U 23028G   25212.94859741 -.00000604  00000+0 -42846-4 0  9991
2 55747  70.0003  81.0912 0002891 266.2822  93.8007 14.98328105132979
STARLINK-5580           
1 55748U 23028H   25212.94442010  .00000237  00000+0  27658-4 0  9993
2 55748  70.0001  81.0767 0002946 269.4387  90.6435 14.98330469132974
STARLINK-5577           
1 55751U 23028L   25212.95277027 -.00000363  00000+0 -22601-4 0  9997
2 55751  70.0002  81.1058 0002512 264.8046  95.2826 14.98328150132972
STARLINK-5612           
1 55754U 23028P   25212.85679250  .00000999  00000+0  91556-4 0  9991
2 55754  70.0002  81.1713 0003202 268.9515  91.1277 14.98312875132967
STARLINK-5072           
1 55758U 23028T   25212.85261813  .00000196  00000+0  24181-4 0  9996
2 55758  69.9999  81.1565 0002991 269.7452  90.3364 14.98326687132965
